[{"OBJECT_NAME":"STARLINK-32126","OBJECT_ID":"2024-132T","EPOCH":"2025-10-08T00:51:43.181280","MEAN_MOTION":15.30181526,"ECCENTRICITY":0.00010054,"INCLINATION":53.1624,"RA_OF_ASC_NODE":41.8276,"ARG_OF_PERICENTER":71.4619,"MEAN_ANOMALY":288.6491,"EPHEMERIS_TYPE":0,"CLASSIFICATION_TYPE":"U","NORAD_CAT_ID":60295,"ELEMENT_SET_NO":999,"REV_AT_EPOCH":6818,"BSTAR":-4.1396235e-5,"MEAN_MOTION_DOT":-1.584e-5,"MEAN_MOTION_DDOT":0},{"OBJECT_NAME":"STARLINK-32143","OBJECT_ID":"2024-132U","EPOCH":"2025-10-07T12:05:36.467520","MEAN_MOTION":15.30194172,"ECCENTRICITY":0.00011239,"INCLINATION":53.1599,"RA_OF_ASC_NODE":44.1973,"ARG_OF_PERICENTER":80.8757,"MEAN_ANOMALY":279.2371,"EPHEMERIS_TYPE":0,"CLASSIFICATION_TYPE":"U","NORAD_CAT_ID":60296,"ELEMENT_SET_NO":999,"REV_AT_EPOCH":6810,"BSTAR":-6.3347116e-5,"MEAN_MOTION_DOT":-2.234e-5,"MEAN_MOTION_DDOT":0},{"OBJECT_NAME":"STARLINK-32034","OBJECT_ID":"2024-132V","EPOCH":"2025-10-07T11:45:50.961888","MEAN_MOTION":15.30192624,"ECCENTRICITY":0.00013994,"INCLINATION":53.1612,"RA_OF_ASC_NODE":44.1137,"ARG_OF_PERICENTER":86.518,"MEAN_ANOMALY":273.5981,"EPHEMERIS_TYPE":0,"CLASSIFICATION_TYPE":"U","NORAD_CAT_ID":60297,"ELEMENT_SET_NO":999,"REV_AT_EPOCH":6810,"BSTAR":-1.9537885e-5,"MEAN_MOTION_DOT":-9.38e-6,"MEAN_MOTION_DDOT":0},{"OBJECT_NAME":"STARLINK-32124","OBJECT_ID":"2024-132W","EPOCH":"2025-10-07T16:46:13.965600","MEAN_MOTION":15.30202864,"ECCENTRICITY":0.00011187,"INCLINATION":53.1575,"RA_OF_ASC_NODE":43.2816,"ARG_OF_PERICENTER":98.0774,"MEAN_ANOMALY":262.0353,"EPHEMERIS_TYPE":0,"CLASSIFICATION_TYPE":"U","NORAD_CAT_ID":60298,"ELEMENT_SET_NO":999,"REV_AT_EPOCH":6813,"BSTAR":0.00024966168,"MEAN_MOTION_DOT":7.043e-5,"MEAN_MOTION_DDOT":0},{"OBJECT_NAME":"STARLINK-32151","OBJECT_ID":"2024-132X","EPOCH":"2025-10-07T23:05:57.253344","MEAN_MOTION":15.30182692,"ECCENTRICITY":8.193e-5,"INCLINATION":53.1626,"RA_OF_ASC_NODE":13.3909,"ARG_OF_PERICENTER":96.9248,"MEAN_ANOMALY":263.1846,"EPHEMERIS_TYPE":0,"CLASSIFICATION_TYPE":"U","NORAD_CAT_ID":60299,"ELEMENT_SET_NO":999,"REV_AT_EPOCH":6857,"BSTAR":-4.2448035e-5,"MEAN_MOTION_DOT":-1.615e-5,"MEAN_MOTION_DDOT":0},{"OBJECT_NAME":"STARLINK-32134","OBJECT_ID":"2024-132Y","EPOCH":"2025-10-07T17:48:21.835296","MEAN_MOTION":15.30238102,"ECCENTRICITY":9.766e-5,"INCLINATION":53.1611,"RA_OF_ASC_NODE":42.84,"ARG_OF_PERICENTER":55.6416,"MEAN_ANOMALY":304.4677,"EPHEMERIS_TYPE":0,"CLASSIFICATION_TYPE":"U","NORAD_CAT_ID":60300,"ELEMENT_SET_NO":999,"REV_AT_EPOCH":6814,"BSTAR":-0.00030201502,"MEAN_MOTION_DOT":-9.303e-5,"MEAN_MOTION_DDOT":0},{"OBJECT_NAME":"STARLINK-11147 [DTC]","OBJECT_ID":"2024-133A","EPOCH":"2025-10-07T16:59:45.259008","MEAN_MOTION":15.69730797,"ECCENTRICITY":0.00010654,"INCLINATION":53.1582,"RA_OF_ASC_NODE":180.5889,"ARG_OF_PERICENTER":90.5591,"MEAN_ANOMALY":269.5549,"EPHEMERIS_TYPE":0,"CLASSIFICATION_TYPE":"U","NORAD_CAT_ID":60301,"ELEMENT_SET_NO":999,"REV_AT_EPOCH":6970,"BSTAR":6.6445122e-5,"MEAN_MOTION_DOT":7.475e-5,"MEAN_MOTION_DDOT":0},{"OBJECT_NAME":"STARLINK-11128 [DTC]","OBJECT_ID":"2024-133B","EPOCH":"2025-10-08T00:31:06.782592","MEAN_MOTION":15.69715504,"ECCENTRICITY":0.00011606,"INCLINATION":53.1581,"RA_OF_ASC_NODE":178.9868,"ARG_OF_PERICENTER":79.6261,"MEAN_ANOMALY":280.4887,"EPHEMERIS_TYPE":0,"CLASSIFICATION_TYPE":"U","NORAD_CAT_ID":60302,"ELEMENT_SET_NO":999,"REV_AT_EPOCH":6975,"BSTAR":2.4757289e-5,"MEAN_MOTION_DOT":2.412e-5,"MEAN_MOTION_DDOT":0},{"OBJECT_NAME":"STARLINK-11227 [DTC]","OBJECT_ID":"2024-133C","EPOCH":"2025-10-08T00:24:02.038464","MEAN_MOTION":15.69717884,"ECCENTRICITY":0.00012981,"INCLINATION":53.1592,"RA_OF_ASC_NODE":178.9539,"ARG_OF_PERICENTER":104.9184,"MEAN_ANOMALY":255.1978,"EPHEMERIS_TYPE":0,"CLASSIFICATION_TYPE":"U","NORAD_CAT_ID":60303,"ELEMENT_SET_NO":999,"REV_AT_EPOCH":6983,"BSTAR":2.3074479e-5,"MEAN_MOTION_DOT":2.208e-5,"MEAN_MOTION_DDOT":0},{"OBJECT_NAME":"STARLINK-11224 [DTC]","OBJECT_ID":"2024-133D","EPOCH":"2025-10-08T00:16:58.958400","MEAN_MOTION":15.69706372,"ECCENTRICITY":9.029e-5,"INCLINATION":53.1583,"RA_OF_ASC_NODE":178.9185,"ARG_OF_PERICENTER":75.1616,"MEAN_ANOMALY":284.9502,"EPHEMERIS_TYPE":0,"CLASSIFICATION_TYPE":"U","NORAD_CAT_ID":60304,"ELEMENT_SET_NO":999,"REV_AT_EPOCH":6983,"BSTAR":1.0612798e-5,"MEAN_MOTION_DOT":6.97e-6,"MEAN_MOTION_DDOT":0},{"OBJECT_NAME":"STARLINK-11115 [DTC]","OBJECT_ID":"2024-133E","EPOCH":"2025-10-08T00:09:55.654560","MEAN_MOTION":15.69684584,"ECCENTRICITY":0.00012217,"INCLINATION":53.1595,"RA_OF_ASC_NODE":178.8851,"ARG_OF_PERICENTER":86.2851,"MEAN_ANOMALY":273.8307,"EPHEMERIS_TYPE":0,"CLASSIFICATION_TYPE":"U","NORAD_CAT_ID":60305,"ELEMENT_SET_NO":999,"REV_AT_EPOCH":6975,"BSTAR":6.0855503e-5,"MEAN_MOTION_DOT":6.782e-5,"MEAN_MOTION_DDOT":0},{"OBJECT_NAME":"STARLINK-11109 [DTC]","OBJECT_ID":"2024-133F","EPOCH":"2025-10-08T00:02:50.918208","MEAN_MOTION":15.69719212,"ECCENTRICITY":0.00010679,"INCLINATION":53.1583,"RA_OF_ASC_NODE":178.853,"ARG_OF_PERICENTER":76.2729,"MEAN_ANOMALY":283.8408,"EPHEMERIS_TYPE":0,"CLASSIFICATION_TYPE":"U","NORAD_CAT_ID":60306,"ELEMENT_SET_NO":999,"REV_AT_EPOCH":6975,"BSTAR":4.058624e-6,"MEAN_MOTION_DOT":-9.7e-7,"MEAN_MOTION_DDOT":0},{"OBJECT_NAME":"STARLINK-11223 [DTC]","OBJECT_ID":"2024-133G","EPOCH":"2025-10-07T17:41:58.920864","MEAN_MOTION":15.69727849,"ECCENTRICITY":0.00011968,"INCLINATION":53.1591,"RA_OF_ASC_NODE":180.0437,"ARG_OF_PERICENTER":75.4847,"MEAN_ANOMALY":284.6304,"EPHEMERIS_TYPE":0,"CLASSIFICATION_TYPE":"U","NORAD_CAT_ID":60307,"ELEMENT_SET_NO":999,"REV_AT_EPOCH":6971,"BSTAR":5.174715e-6,"MEAN_MOTION_DOT":3.8e-7,"MEAN_MOTION_DDOT":0},{"OBJECT_NAME":"STARLINK-11192 [DTC]","OBJECT_ID":"2024-133H","EPOCH":"2025-10-07T23:55:46.980192","MEAN_MOTION":15.69715433,"ECCENTRICITY":0.0001499,"INCLINATION":53.1595,"RA_OF_ASC_NODE":178.8203,"ARG_OF_PERICENTER":93.637,"MEAN_ANOMALY":266.4819,"EPHEMERIS_TYPE":0,"CLASSIFICATION_TYPE":"U","NORAD_CAT_ID":60308,"ELEMENT_SET_NO":999,"REV_AT_EPOCH":6975,"BSTAR":1.6347501e-5,"MEAN_MOTION_DOT":1.392e-5,"MEAN_MOTION_DDOT":0},{"OBJECT_NAME":"STARLINK-11213 [DTC]","OBJECT_ID":"2024-133J","EPOCH":"2025-10-07T23:41:39.370272","MEAN_MOTION":15.69721286,"ECCENTRICITY":0.0001291,"INCLINATION":53.1604,"RA_OF_ASC_NODE":178.7557,"ARG_OF_PERICENTER":73.0024,"MEAN_ANOMALY":287.1135,"EPHEMERIS_TYPE":0,"CLASSIFICATION_TYPE":"U","NORAD_CAT_ID":60309,"ELEMENT_SET_NO":999,"REV_AT_EPOCH":6975,"BSTAR":5.399e-6,"MEAN_MOTION_DOT":6.5e-7,"MEAN_MOTION_DDOT":0},{"OBJECT_NAME":"STARLINK-11200 [DTC]","OBJECT_ID":"2024-133K","EPOCH":"2025-10-07T23:34:35.601600","MEAN_MOTION":15.69730958,"ECCENTRICITY":0.0001188,"INCLINATION":53.1586,"RA_OF_ASC_NODE":178.7217,"ARG_OF_PERICENTER":81.2989,"MEAN_ANOMALY":278.8164,"EPHEMERIS_TYPE":0,"CLASSIFICATION_TYPE":"U","NORAD_CAT_ID":60310,"ELEMENT_SET_NO":999,"REV_AT_EPOCH":6975,"BSTAR":5.5778e-5,"MEAN_MOTION_DOT":6.179e-5,"MEAN_MOTION_DDOT":0}]
