STARLINK-32126          
1 60295U 24132T   25281.03591645 -.00001584  00000+0 -41396-4 0  9991
2 60295  53.1624  41.8276 0001005  71.4619 288.6491 15.30181526 68180
STARLINK-32143          
1 60296U 24132U   25280.50389430 -.00002234  00000+0 -63347-4 0  9993
2 60296  53.1599  44.1973 0001123  80.8757 279.2371 15.30194172 68106
STARLINK-32034          
1 60297U 24132V   25280.49017317 -.00000938  00000+0 -19538-4 0  9996
2 60297  53.1612  44.1137 0001399  86.5180 273.5981 15.30192624 68107
STARLINK-32124          
1 60298U 24132W   25280.69877275  .00007043  00000+0  24966-3 0  9998
2 60298  53.1575  43.2816 0001118  98.0774 262.0353 15.30202864 68133
STARLINK-32151          
1 60299U 24132X   25280.96246821 -.00001615  00000+0 -42448-4 0  9993
2 60299  53.1626  13.3909 0000819  96.9248 263.1846 15.30182692 68575
STARLINK-32134          
1 60300U 24132Y   25280.74191939 -.00009303  00000+0 -30202-3 0  9997
2 60300  53.1611  42.8400 0000976  55.6416 304.4677 15.30238102 68140
STARLINK-11147 [DTC]    
1 60301U 24133A   25280.70816272  .00007475  00000+0  66445-4 0  9994
2 60301  53.1582 180.5889 0001065  90.5591 269.5549 15.69730797 69702
STARLINK-11128 [DTC]    
1 60302U 24133B   25281.02160628  .00002412  00000+0  24757-4 0  9994
2 60302  53.1581 178.9868 0001160  79.6261 280.4887 15.69715504 69759
STARLINK-11227 [DTC]    
1 60303U 24133C   25281.01669026  .00002208  00000+0  23074-4 0  9994
2 60303  53.1592 178.9539 0001298 104.9184 255.1978 15.69717884 69837
STARLINK-11224 [DTC]    
1 60304U 24133D   25281.01179350  .00000697  00000+0  10613-4 0  9996
2 60304  53.1583 178.9185 0000902  75.1616 284.9502 15.69706372 69838
STARLINK-11115 [DTC]    
1 60305U 24133E   25281.00689415  .00006782  00000+0  60856-4 0  9999
2 60305  53.1595 178.8851 0001221  86.2851 273.8307 15.69684584 69751
STARLINK-11109 [DTC]    
1 60306U 24133F   25281.00197822 -.00000097  00000+0  40586-5 0  9999
2 60306  53.1583 178.8530 0001067  76.2729 283.8408 15.69719212 69754
STARLINK-11223 [DTC]    
1 60307U 24133G   25280.73748751  .00000038  00000+0  51747-5 0  9997
2 60307  53.1591 180.0437 0001196  75.4847 284.6304 15.69727849 69715
STARLINK-11192 [DTC]    
1 60308U 24133H   25280.99707153  .00001392  00000+0  16348-4 0  9998
2 60308  53.1595 178.8203 0001499  93.6370 266.4819 15.69715433 69754
STARLINK-11213 [DTC]    
1 60309U 24133J   25280.98726123  .00000065  00000+0  53990-5 0  9997
2 60309  53.1604 178.7557 0001291  73.0024 287.1135 15.69721286 69759
STARLINK-11200 [DTC]    
1 60310U 24133K   25280.98235650  .00006179  00000+0  55778-4 0  9996
2 60310  53.1586 178.7217 0001188  81.2989 278.8164 15.69730958 69754
